NORAD_CAT_ID,OBJECT_NAME,OBJECT_TYPE,EPOCH,MEAN_MOTION,ECCENTRICITY,INCLINATION,RA_OF_ASC_NODE,ARG_OF_PERICENTER,MEAN_ANOMALY,BSTAR,MEAN_MOTION_DOT,MEAN_MOTION_DDOT,TLE_LINE0,TLE_LINE1,TLE_LINE2,SEMIMAJOR_AXIS,PERIOD,APOGEE,PERIGEE,DECAYED
54184.0,STARLINK-5162,PAYLOAD,2024-02-01 12:02:03,15.0883935,0.000127,53.2152,207.7799,95.8912,264.2225,0.00011769,1.586e-05,0.0,0 STARLINK-5162,1 54184U 22141AD  24032.50143008  .00001586  00000-0  11769-3 0  9991,2 54184  53.2152 207.7799 0001270  95.8912 264.2225 15.08839350 70043,6917.882,95.438,540.626,538.869,0.0
54184.0,STARLINK-5162,PAYLOAD,2024-02-02 15:03:37,15.08840782,0.0001286,53.2153,202.7246,92.7568,267.3571,8.2136e-05,1.02e-05,0.0,0 STARLINK-5162,1 54184U 22141AD  24033.62751169  .00001020  00000-0  82136-4 0  9998,2 54184  53.2153 202.7246 0001286  92.7568 267.3571 15.08840782 70214,6917.878,95.438,540.633,538.853,0.0
54184.0,STARLINK-5162,PAYLOAD,2024-02-02 18:14:23,15.0884118,0.000128,53.2154,202.1299,92.7074,267.4064,8.2623e-05,1.027e-05,0.0,0 STARLINK-5162,1 54184U 22141AD  24033.75999140  .00001027  00000-0  82623-4 0  9993,2 54184  53.2154 202.1299 0001280  92.7074 267.4064 15.08841180 70461,6917.877,95.437,540.627,538.856,0.0
54184.0,STARLINK-5162,PAYLOAD,2024-02-03 16:29:47,15.08839871,0.0001363,53.2165,197.9675,98.5875,261.5272,3.5409e-07,-2.82e-06,0.0,0 STARLINK-5162,1 54184U 22141AD  24034.68735406 -.00000282  00000-0  35409-6 0  9994,2 54184  53.2165 197.9675 0001363  98.5875 261.5272 15.08839871 70377,6917.881,95.438,540.689,538.803,0.0
54184.0,STARLINK-5162,PAYLOAD,2024-02-04 03:37:29,15.08838578,0.0001353,53.2166,195.885,89.6481,270.4666,2.8532e-05,1.66e-06,0.0,0 STARLINK-5162,1 54184U 22141AD  24035.15103341  .00000166  00000-0  28532-4 0  9991,2 54184  53.2166 195.8850 0001353  89.6481 270.4666 15.08838578 70675,6917.885,95.438,540.686,538.814,0.0
54184.0,STARLINK-5162,PAYLOAD,2024-02-04 14:45:11,15.08840666,0.0001346,53.2167,193.8048,92.3112,267.8034,4.116e-05,3.67e-06,0.0,0 STARLINK-5162,1 54184U 22141AD  24035.61471252  .00000367  00000-0  41160-4 0  9996,2 54184  53.2167 193.8048 0001346  92.3112 267.8034 15.08840666 70510,6917.878,95.438,540.674,538.812,0.0
54184.0,STARLINK-5162,PAYLOAD,2024-02-04 17:55:57,15.08843189,0.0001357,53.2167,193.2099,90.6457,269.469,6.2825e-05,7.12e-06,0.0,0 STARLINK-5162,1 54184U 22141AD  24035.74719028  .00000712  00000-0  62825-4 0  9991,2 54184  53.2167 193.2099 0001357  90.6457 269.4690 15.08843189 70536,6917.871,95.437,540.674,538.797,0.0
54184.0,STARLINK-5162,PAYLOAD,2024-02-05 14:35:58,15.088371,0.0001326,53.2165,189.3443,90.1644,269.95,4.6393e-05,4.5e-06,0.0,0 STARLINK-5162,1 54184U 22141AD  24036.60831541  .00000450  00000-0  46393-4 0  9993,2 54184  53.2165 189.3443 0001326  90.1644 269.9500 15.08837100 70667,6917.889,95.438,540.672,538.837,0.0
54184.0,STARLINK-5162,PAYLOAD,2024-02-05 17:46:44,15.08838971,0.0001479,53.2169,188.7497,73.0172,287.0983,6.044e-05,6.74e-06,0.0,0 STARLINK-5162,1 54184U 22141AD  24036.74079525  .00000674  00000-0  60440-4 0  9991,2 54184  53.2169 188.7497 0001479  73.0172 287.0983 15.08838971 70919,6917.884,95.438,540.772,538.725,0.0
54184.0,STARLINK-5162,PAYLOAD,2024-02-06 14:26:45,15.08837232,0.0001359,53.2169,184.8858,76.5937,283.5207,0.00013801,1.909e-05,0.0,0 STARLINK-5162,1 54184U 22141AD  24037.60191448  .00001909  00000-0  13801-3 0  9996,2 54184  53.2169 184.8858 0001359  76.5937 283.5207 15.08837232 70819,6917.889,95.438,540.694,538.814,0.0
54184.0,STARLINK-5162,PAYLOAD,2024-02-06 16:02:08,15.08839207,0.0001747,53.2172,184.5895,61.3025,298.8143,0.0001305,1.789e-05,0.0,0 STARLINK-5162,1 54184U 22141AD  24037.66815405  .00001789  00000-0  13050-3 0  9990,2 54184  53.2172 184.5895 0001747  61.3025 298.8143 15.08839207 70825,6917.883,95.438,540.956,538.539,0.0
54184.0,STARLINK-5162,PAYLOAD,2024-02-07 12:42:09,15.08824684,0.0001488,53.2176,180.7255,65.2955,294.8192,0.00020086,2.909e-05,0.0,0 STARLINK-5162,1 54184U 22141AD  24038.52927905  .00002909  00000-0  20086-3 0  9997,2 54184  53.2176 180.7255 0001488  65.2955 294.8192 15.08824684 71187,6917.927,95.439,540.822,538.763,0.0
54184.0,STARLINK-5162,PAYLOAD,2024-02-07 14:17:32,15.08838077,0.0001537,53.2171,180.4277,65.77,294.3452,7.8355e-06,-1.63e-06,0.0,0 STARLINK-5162,1 54184U 22141AD  24038.59551879 -.00000163  00000-0  78355-5 0  9992,2 54184  53.2171 180.4277 0001537  65.7700 294.3452 15.08838077 70961,6917.886,95.438,540.815,538.688,0.0
54184.0,STARLINK-5162,PAYLOAD,2024-02-07 15:52:55,15.08840741,0.0001274,53.217,180.1282,80.7922,279.3214,3.3162e-05,2.4e-06,0.0,0 STARLINK-5162,1 54184U 22141AD  24038.66175522  .00000240  00000-0  33162-4 0  9998,2 54184  53.2170 180.1282 0001274  80.7922 279.3214 15.08840741 71202,6917.878,95.438,540.624,538.862,0.0
54184.0,STARLINK-5162,PAYLOAD,2024-02-08 14:08:20,15.08838157,0.0001215,53.2164,175.9585,97.1624,262.9506,-0.00010351,-1.935e-05,0.0,0 STARLINK-5162,1 54184U 22141AD  24039.58912155 -.00001935  00000-0 -10351-3 0  9999,2 54184  53.2164 175.9585 0001215  97.1624 262.9506 15.08838157 71119,6917.886,95.438,540.592,538.91,0.0
54184.0,STARLINK-5162,PAYLOAD,2024-02-08 15:43:43,15.08836988,0.0001205,53.2167,175.6615,99.3356,260.7772,-0.00010303,-1.927e-05,0.0,0 STARLINK-5162,1 54184U 22141AD  24039.65536223 -.00001927  00000-0 -10303-3 0  9993,2 54184  53.2167 175.6615 0001205  99.3356 260.7772 15.08836988 71355,6917.89,95.438,540.588,538.921,0.0
54184.0,STARLINK-5162,PAYLOAD,2024-02-09 13:59:06,15.08844797,0.0001189,53.2159,171.5,80.3405,279.7721,9.837e-05,1.278e-05,0.0,0 STARLINK-5162,1 54184U 22141AD  24040.58271355  .00001278  00000-0  98370-4 0  9997,2 54184  53.2159 171.5000 0001189  80.3405 279.7721 15.08844797 71266,6917.866,95.437,540.553,538.908,0.0
54184.0,STARLINK-5162,PAYLOAD,2024-02-09 15:34:29,15.08849467,0.0001298,53.2167,171.2031,93.511,266.603,0.00014421,2.009e-05,0.0,0 STARLINK-5162,1 54184U 22141AD  24040.64894902  .00002009  00000-0  14421-3 0  9990,2 54184  53.2167 171.2031 0001298  93.5110 266.6030 15.08849467 71500,6917.851,95.437,540.614,538.819,0.0
54184.0,STARLINK-5162,PAYLOAD,2024-02-10 12:14:31,15.08829599,0.0001477,53.2171,167.3381,114.7931,245.3215,9.6012e-05,1.24e-05,0.0,0 STARLINK-5162,1 54184U 22141AD  24041.51008638  .00001240  00000-0  96012-4 0  9993,2 54184  53.2171 167.3381 0001477 114.7931 245.3215 15.08829599 71632,6917.912,95.438,540.799,538.755,0.0
54184.0,STARLINK-5162,PAYLOAD,2024-02-10 13:49:54,15.08832597,0.0001566,53.2159,167.0389,121.9641,238.1503,0.00010961,1.457e-05,0.0,0 STARLINK-5162,1 54184U 22141AD  24041.57632420  .00001457  00000-0  10961-3 0  9999,2 54184  53.2159 167.0389 0001566 121.9641 238.1503 15.08832597 71418,6917.903,95.438,540.851,538.685,0.0
54184.0,STARLINK-5162,PAYLOAD,2024-02-10 15:25:17,15.0883568,0.0001297,53.2161,166.7392,67.5683,292.5446,0.00011627,1.563e-05,0.0,0 STARLINK-5162,1 54184U 22141AD  24041.64256379  .00001563  00000-0  11627-3 0  9990,2 54184  53.2161 166.7392 0001297  67.5683 292.5446 15.08835680 71420,6917.894,95.438,540.656,538.861,0.0
54184.0,STARLINK-5162,PAYLOAD,2024-02-11 12:05:17,15.08870189,0.0001539,53.2162,162.8788,123.4488,236.6652,-0.00018728,-3.27e-05,0.0,0 STARLINK-5162,1 54184U 22141AD  24042.50367274 -.00003270  00000-0 -18728-3 0  9991,2 54184  53.2162 162.8788 0001539 123.4488 236.6652 15.08870189 71781,6917.788,95.436,540.718,538.588,0.0
54184.0,STARLINK-5162,PAYLOAD,2024-02-11 13:40:40,15.0885233,0.0001497,53.2167,162.5807,105.2347,254.881,9.118e-07,-2.73e-06,0.0,0 STARLINK-5162,1 54184U 22141AD  24042.56991618 -.00000273  00000-0  91180-6 0  9997,2 54184  53.2167 162.5807 0001497 105.2347 254.8810 15.08852330 71562,6917.843,95.437,540.743,538.672,0.0
54184.0,STARLINK-5162,PAYLOAD,2024-02-11 16:51:26,15.08862686,0.0001152,53.2163,161.9876,103.9491,256.163,8.8144e-05,1.116e-05,0.0,0 STARLINK-5162,1 54184U 22141AD  24042.70238755  .00001116  00000-0  88144-4 0  9999,2 54184  53.2163 161.9876 0001152 103.9491 256.1630 15.08862686 71582,6917.811,95.436,540.473,538.879,0.0
54184.0,STARLINK-5162,PAYLOAD,2024-02-12 11:56:05,15.08840558,0.0001279,53.2162,158.4173,95.0232,265.0906,0.00012248,1.662e-05,0.0,0 STARLINK-5162,1 54184U 22141AD  24043.49728066  .00001662  00000-0  12248-3 0  9992,2 54184  53.2162 158.4173 0001279  95.0232 265.0906 15.08840558 71934,6917.879,95.438,540.628,538.859,0.0
54184.0,STARLINK-5162,PAYLOAD,2024-02-12 13:31:28,15.08842583,0.00014,53.2164,158.1202,89.4912,270.624,0.00013861,1.919e-05,0.0,0 STARLINK-5162,1 54184U 22141AD  24043.56351957  .00001919  00000-0  13861-3 0  9998,2 54184  53.2164 158.1202 0001400  89.4912 270.6240 15.08842583 71713,6917.872,95.437,540.706,538.769,0.0
54184.0,STARLINK-5162,PAYLOAD,2024-02-12 15:06:50,15.08853069,0.0001326,53.2172,157.8232,96.5524,263.5619,0.00023101,3.392e-05,0.0,0 STARLINK-5162,1 54184U 22141AD  24043.62975068  .00003392  00000-0  23101-3 0  9995,2 54184  53.2172 157.8232 0001326  96.5524 263.5619 15.08853069 71954,6917.84,95.437,540.623,538.788,0.0
54184.0,STARLINK-5162,PAYLOAD,2024-02-13 11:46:52,15.08841168,0.0001561,53.2174,153.9596,77.8439,282.2728,-6.6991e-05,-1.354e-05,0.0,0 STARLINK-5162,1 54184U 22141AD  24044.49088789 -.00001354  00000-0 -66991-4 0  9999,2 54184  53.2174 153.9596 0001561  77.8439 282.2728 15.08841168 72085,6917.877,95.437,540.822,538.662,0.0
54184.0,STARLINK-5162,PAYLOAD,2024-02-13 13:22:15,15.0884254,0.0001623,53.2176,153.662,82.4184,277.6992,-5.2074e-05,-1.117e-05,0.0,0 STARLINK-5162,1 54184U 22141AD  24044.55712658 -.00001117  00000-0 -52074-4 0  9999,2 54184  53.2176 153.6620 0001623  82.4184 277.6992 15.08842540 71861,6917.873,95.437,540.86,538.615,0.0
54184.0,STARLINK-5162,PAYLOAD,2024-02-13 16:33:01,15.0884984,0.0001465,53.2169,153.0645,82.814,277.3018,2.2338e-05,6.8e-07,0.0,0 STARLINK-5162,1 54184U 22141AD  24044.68960168  .00000068  00000-0  22338-4 0  9996,2 54184  53.2169 153.0645 0001465  82.8140 277.3018 15.08849840 72119,6917.85,95.437,540.729,538.702,0.0
